INTELSAT 23 (IS-23)     
1 38867U 12057A   26198.18794513 -.00000295  00000+0  00000+0 0  9996
2 38867   0.0179 316.6424 0000706 295.6341  57.3680  1.00263147 50255
FM-6                    
1 39360U 13058A   26198.03007251 -.00000026  00000+0  00000+0 0  9999
2 39360   0.0136  35.2929 0001515 146.7149   7.3125  1.00271340 46373
INTELSAT 30 (IS-30)     
1 40271U 14062A   26198.10653285 -.00000161  00000+0  00000+0 0  9990
2 40271   0.0191  54.9188 0001350 341.3686 201.9363  1.00270060  7098
DIRECTV 14              
1 40333U 14078B   26197.85398552 -.00000136  00000+0  00000+0 0  9992
2 40333   0.0102  43.3103 0000522 316.5446 143.0174  1.00271035 42342
DIRECTV 15              
1 40663U 15026A   26197.60599666 -.00000113  00000+0  00000+0 0  9999
2 40663   0.0230  76.6558 0000264 264.8032  68.2365  1.00268719 40750
SKY MEXICO-1            
1 40664U 15026B   26198.10973953 -.00000245  00000+0  00000+0 0  9997
2 40664   0.0124  66.4066 0002317  66.6952 122.5299  1.00273045 40752
INTELSAT 34 (IS-34)     
1 40874U 15039A   26197.97173703 -.00000296  00000+0  00000+0 0  9999
2 40874   0.0104  28.9459 0000389 347.3526 212.8160  1.00269292 39932
INTELSAT 31 (IS-31)     
1 41581U 16035A   26197.96388514 -.00000161  00000+0  00000+0 0  9990
2 41581   0.0045 295.7758 0001075   2.1655 248.7850  1.00270188 36982
INTELSAT 36 (IS-36)     
1 41747U 16053A   26197.99633785 -.00000034  00000+0  00000+0 0  9999
2 41747   0.0111  32.7323 0002414 308.7920  20.4524  1.00269559 36258
INTELSAT 32E (IS-32E)   
1 41945U 17007B   26198.18794513  .00000000  00000+0  00000+0 0  9990
2 41945   0.0213  60.5137 0000482 325.7308 293.2505  1.00270529 34521
INTELSAT 35E (IS-35E)   
1 42818U 17041A   26198.18239295 -.00000248  00000+0  00000+0 0  9994
2 42818   0.0193  50.3693 0001877  67.9523 207.8339  1.00272896 33114
INTELSAT 37E (IS-37E)   
1 42950U 17059A   26198.11503152 -.00000151  00000+0  00000+0 0  9992
2 42950   0.0149  69.2009 0002597  51.2007 197.9297  1.00272752 32364
AZERSPACE 2 (IS-38)     
1 43632U 18074A   26198.13431649  .00000000  00000+0  00000+0 0  9993
2 43632   0.0222  56.7505 0001409  60.0662 271.6166  1.00270363 28740
HORIZONS-3E             
1 43633U 18074B   26198.15884329 -.00000041  00000+0  00000+0 0  9999
2 43633   0.0266 227.0013 0000924  60.5153 233.6328  1.00273107 28643
AT&T T-16               
1 44333U 19034A   26197.96275846 -.00000126  00000+0  00000+0 0  9994
2 44333   0.0156  72.9858 0000711 264.8400 202.6904  1.00272918 25935
INTELSAT 39 (IS-39)     
1 44476U 19049B   26198.06631521  .00000000  00000+0  00000+0 0  9996
2 44476   0.0198  53.9430 0000936 293.4619  33.3157  1.00269158 25428
GALAXY 30 (G-30)        
1 46114U 20056C   26198.10063948  .00000000  00000+0  00000+0 0  9994
2 46114   0.0219  58.4095 0002211  59.8090  87.9453  1.00270761 21595
GALAXY 33 (G-33)        
1 54026U 22128A   26197.95643177  .00000069  00000+0  00000+0 0  9992
2 54026   0.0137  58.4343 0001805  54.8774  32.7735  1.00269375 14045
GALAXY 34 (G-34)        
1 54027U 22128B   26198.04661801  .00000051  00000+0  00000+0 0  9999
2 54027   0.0096  51.7712 0002463  66.7924  64.0693  1.00254566 14212
GALAXY 31 (G-31)        
1 54243U 22153A   26198.10141949  .00000003  00000+0  00000+0 0  9997
2 54243   0.0167  92.0034 0001060  27.4506  90.9596  1.00271782  7433
GALAXY 32 (G-32)        
1 54244U 22153B   26198.10731285 -.00000184  00000+0  00000+0 0  9997
2 54244   0.0103  47.6784 0001364 357.9732 196.9056  1.00272443 13442
GALAXY 35 (G-35)        
1 54741U 22170A   26198.10687950 -.00000172  00000+0  00000+0 0  9994
2 54741   0.0149  78.9995 0001839  37.2821 124.0074  1.00272255 13194
GALAXY 36 (G-36)        
1 54742U 22170B   26198.10774618 -.00000195  00000+0  00000+0 0  9998
2 54742   0.0137 132.7692 0002580 325.9765 145.9684  1.00271871 13072
GALAXY 37 (G-37)        
1 57493U 23112A   26198.04710456  .00000000  00000+0  00000+0 0  9998
2 57493   0.0192  53.5787 0001976  61.0822  70.1764  1.00269763 10841
